{
  "norad_id": 66823,
  "name": "STARLINK-35957",
  "history": [
    {
      "epoch": "2026-04-11T18:27:16.645824Z",
      "apogee_km": 574.2305822209028,
      "perigee_km": 569.8213988197158,
      "latitude_deg": 3.9963708042716576e-05,
      "longitude_deg": 134.13147394689872,
      "height_km": 574.479992831142,
      "semi_major_axis_km": 6950.162990520309,
      "eccentricity": 0.0003172,
      "inclination_deg": 70.0012,
      "raan_deg": 250.9345,
      "arg_perigee_deg": 269.3169,
      "mean_anomaly_deg": 90.7627,
      "mean_motion_rev_day": 14.98339669
    },
    {
      "epoch": "2026-04-13T02:29:57.951744Z",
      "apogee_km": 574.2539258366369,
      "perigee_km": 569.8309706393675,
      "latitude_deg": 5.484572247296812e-05,
      "longitude_deg": 8.776737057238138,
      "height_km": 574.4871343656744,
      "semi_major_axis_km": 6950.179448238002,
      "eccentricity": 0.00031819,
      "inclination_deg": 70.0008,
      "raan_deg": 247.5679,
      "arg_perigee_deg": 269.5597,
      "mean_anomaly_deg": 90.5198,
      "mean_motion_rev_day": 14.98334347
    },
    {
      "epoch": "2026-04-14T15:21:03.625056Z",
      "apogee_km": 574.2598104790322,
      "perigee_km": 569.8533877371983,
      "latitude_deg": 1.5068708395190964e-05,
      "longitude_deg": 170.6181449068993,
      "height_km": 574.5253495913665,
      "semi_major_axis_km": 6950.193599108115,
      "eccentricity": 0.000317,
      "inclination_deg": 70.001,
      "raan_deg": 243.6964,
      "arg_perigee_deg": 268.9323,
      "mean_anomaly_deg": 91.1473,
      "mean_motion_rev_day": 14.98329771
    },
    {
      "epoch": "2026-04-15T18:35:20.902272Z",
      "apogee_km": 574.2997999822474,
      "perigee_km": 569.808586433197,
      "latitude_deg": 1.0764906147004417e-05,
      "longitude_deg": 118.06602668790003,
      "height_km": 574.5321334820904,
      "semi_major_axis_km": 6950.191193207722,
      "eccentricity": 0.0003231,
      "inclination_deg": 70.0015,
      "raan_deg": 240.8349,
      "arg_perigee_deg": 268.7204,
      "mean_anomaly_deg": 91.3585,
      "mean_motion_rev_day": 14.98330549
    },
    {
      "epoch": "2026-04-16T18:37:21.755136Z",
      "apogee_km": 574.3325719326058,
      "perigee_km": 569.7343391592167,
      "latitude_deg": -1.258330340187484e-05,
      "longitude_deg": 114.04964289796396,
      "height_km": 574.5272645351845,
      "semi_major_axis_km": 6950.170455545911,
      "eccentricity": 0.0003308,
      "inclination_deg": 70.0015,
      "raan_deg": 238.3091,
      "arg_perigee_deg": 268.3567,
      "mean_anomaly_deg": 91.7213,
      "mean_motion_rev_day": 14.98337255
    },
    {
      "epoch": "2026-04-17T18:39:22.279680Z",
      "apogee_km": 574.3346749976745,
      "perigee_km": 569.6907239714737,
      "latitude_deg": -2.301003070826083e-05,
      "longitude_deg": 110.03613493553702,
      "height_km": 574.4728645511938,
      "semi_major_axis_km": 6950.149699484574,
      "eccentricity": 0.00033409,
      "inclination_deg": 70.002,
      "raan_deg": 235.7848,
      "arg_perigee_deg": 269.205,
      "mean_anomaly_deg": 90.8726,
      "mean_motion_rev_day": 14.98343967
    },
    {
      "epoch": "2026-04-18T13:52:58.898208Z",
      "apogee_km": 574.1170190585299,
      "perigee_km": 569.9121773416182,
      "latitude_deg": -5.283576640079893e-05,
      "longitude_deg": 178.8236289952134,
      "height_km": 574.6109646465691,
      "semi_major_axis_km": 6950.151598200074,
      "eccentricity": 0.0003025,
      "inclination_deg": 70.0025,
      "raan_deg": 233.7645,
      "arg_perigee_deg": 265.3983,
      "mean_anomaly_deg": 94.683,
      "mean_motion_rev_day": 14.98343353
    },
    {
      "epoch": "2026-04-19T17:07:15.915360Z",
      "apogee_km": 574.3512165829225,
      "perigee_km": 569.7237903984987,
      "latitude_deg": -1.8217903540219594e-05,
      "longitude_deg": 126.27170843541928,
      "height_km": 574.6758469311047,
      "semi_major_axis_km": 6950.17450349071,
      "eccentricity": 0.0003329,
      "inclination_deg": 70.0028,
      "raan_deg": 230.9021,
      "arg_perigee_deg": 264.7839,
      "mean_anomaly_deg": 95.294,
      "mean_motion_rev_day": 14.98335946
    },
    {
      "epoch": "2026-04-20T13:57:01.804032Z",
      "apogee_km": 574.4550087293082,
      "perigee_km": 569.784714128702,
      "latitude_deg": 5.1975296630570065e-06,
      "longitude_deg": 170.78697884754993,
      "height_km": 574.7067171661595,
      "semi_major_axis_km": 6950.256861429005,
      "eccentricity": 0.00033598,
      "inclination_deg": 70.0021,
      "raan_deg": 228.714,
      "arg_perigee_deg": 266.0979,
      "mean_anomaly_deg": 93.9796,
      "mean_motion_rev_day": 14.98309314
    },
    {
      "epoch": "2026-04-21T15:35:11.668704Z",
      "apogee_km": 574.6389528598065,
      "perigee_km": 569.4971911475386,
      "latitude_deg": -7.6254935408301956e-06,
      "longitude_deg": 142.50083265121896,
      "height_km": 574.66325133989,
      "semi_major_axis_km": 6950.205072003672,
      "eccentricity": 0.0003699,
      "inclination_deg": 70.0011,
      "raan_deg": 226.0218,
      "arg_perigee_deg": 266.2761,
      "mean_anomaly_deg": 93.7975,
      "mean_motion_rev_day": 14.98326061
    },
    {
      "epoch": "2026-04-22T17:13:20.538048Z",
      "apogee_km": 574.5695903179358,
      "perigee_km": 569.4876292240715,
      "latitude_deg": 7.217724964821425e-05,
      "longitude_deg": 114.21877850029827,
      "height_km": 574.6415609583644,
      "semi_major_axis_km": 6950.165609771003,
      "eccentricity": 0.0003656,
      "inclination_deg": 70.0017,
      "raan_deg": 223.3295,
      "arg_perigee_deg": 265.8308,
      "mean_anomaly_deg": 94.2434,
      "mean_motion_rev_day": 14.98338822
    },
    {
      "epoch": "2026-04-23T14:03:04.590720Z",
      "apogee_km": 574.5397529032653,
      "perigee_km": 569.4548956289464,
      "latitude_deg": 1.3258035264418007e-05,
      "longitude_deg": 158.74198997652246,
      "height_km": 574.5985031344045,
      "semi_major_axis_km": 6950.134324266106,
      "eccentricity": 0.00036581,
      "inclination_deg": 70.0015,
      "raan_deg": 221.1417,
      "arg_perigee_deg": 266.0992,
      "mean_anomaly_deg": 93.9749,
      "mean_motion_rev_day": 14.98348939
    },
    {
      "epoch": "2026-04-24T17:17:20.546016Z",
      "apogee_km": 574.5402197592075,
      "perigee_km": 569.4360478609378,
      "latitude_deg": -2.511689811325631e-05,
      "longitude_deg": 106.19587902549215,
      "height_km": 574.5892321964338,
      "semi_major_axis_km": 6950.125133810073,
      "eccentricity": 0.0003672,
      "inclination_deg": 70.0018,
      "raan_deg": 218.2807,
      "arg_perigee_deg": 266.1167,
      "mean_anomaly_deg": 93.9572,
      "mean_motion_rev_day": 14.98351911
    },
    {
      "epoch": "2026-04-25T15:43:13.227744Z",
      "apogee_km": 574.523710932548,
      "perigee_km": 569.5390501700167,
      "latitude_deg": 6.501233238240691e-06,
      "longitude_deg": 126.44946220299336,
      "height_km": 574.6134457270431,
      "semi_major_axis_km": 6950.168380551282,
      "eccentricity": 0.0003586,
      "inclination_deg": 70.0024,
      "raan_deg": 215.925,
      "arg_perigee_deg": 266.4607,
      "mean_anomaly_deg": 93.6142,
      "mean_motion_rev_day": 14.98337926
    },
    {
      "epoch": "2026-04-26T14:09:06.409728Z",
      "apogee_km": 574.518089626873,
      "perigee_km": 569.5876249421162,
      "latitude_deg": 6.426801638966103e-05,
      "longitude_deg": 146.70026533483204,
      "height_km": 574.6265126445652,
      "semi_major_axis_km": 6950.189857284495,
      "eccentricity": 0.0003547,
      "inclination_deg": 70.0025,
      "raan_deg": 213.5686,
      "arg_perigee_deg": 266.6166,
      "mean_anomaly_deg": 93.4588,
      "mean_motion_rev_day": 14.98330981
    },
    {
      "epoch": "2026-04-27T15:47:15.534816Z",
      "apogee_km": 574.6259268703143,
      "perigee_km": 569.4605529160253,
      "latitude_deg": 4.461615937007606e-05,
      "longitude_deg": 118.41561009949177,
      "height_km": 574.5675718347017,
      "semi_major_axis_km": 6950.1802398931695,
      "eccentricity": 0.0003716,
      "inclination_deg": 70.0022,
      "raan_deg": 210.8748,
      "arg_perigee_deg": 267.869,
      "mean_anomaly_deg": 92.2044,
      "mean_motion_rev_day": 14.98334091
    },
    {
      "epoch": "2026-04-28T14:13:08.505984Z",
      "apogee_km": 574.6462071688329,
      "perigee_km": 569.4419115915689,
      "latitude_deg": -1.415497333051567e-05,
      "longitude_deg": 138.66705225054324,
      "height_km": 574.5367185509562,
      "semi_major_axis_km": 6950.1810593802,
      "eccentricity": 0.0003744,
      "inclination_deg": 70.0023,
      "raan_deg": 208.5182,
      "arg_perigee_deg": 268.5834,
      "mean_anomaly_deg": 91.4896,
      "mean_motion_rev_day": 14.98333826
    },
    {
      "epoch": "2026-04-29T15:51:17.206848Z",
      "apogee_km": 574.6829584202042,
      "perigee_km": 569.3660848561522,
      "latitude_deg": 1.9733223709539428e-05,
      "longitude_deg": 110.38508852106699,
      "height_km": 574.4944769120605,
      "semi_major_axis_km": 6950.161521638178,
      "eccentricity": 0.0003825,
      "inclination_deg": 70.0027,
      "raan_deg": 205.8253,
      "arg_perigee_deg": 269.105,
      "mean_anomaly_deg": 90.9671,
      "mean_motion_rev_day": 14.98340144
    },
    {
      "epoch": "2026-04-30T14:17:09.847104Z",
      "apogee_km": 574.5796363509207,
      "perigee_km": 569.4639024871021,
      "latitude_deg": -3.228630204622159e-05,
      "longitude_deg": 130.6389147982179,
      "height_km": 574.4763309951646,
      "semi_major_axis_km": 6950.158769419011,
      "eccentricity": 0.00036803,
      "inclination_deg": 70.0031,
      "raan_deg": 203.4697,
      "arg_perigee_deg": 269.4125,
      "mean_anomaly_deg": 90.6612,
      "mean_motion_rev_day": 14.98341034
    }
  ]
}